CCSDS_OMM_VERS,COMMENT,CREATION_DATE,ORIGINATOR,OBJECT_NAME,OBJECT_ID,CENTER_NAME,REF_FRAME,TIME_SYSTEM,MEAN_ELEMENT_THEORY,EPOCH,MEAN_MOTION,ECCENTRICITY,INCLINATION,RA_OF_ASC_NODE,ARG_OF_PERICENTER,MEAN_ANOMALY,EPHEMERIS_TYPE,CLASSIFICATION_TYPE,NORAD_CAT_ID,ELEMENT_SET_NO,REV_AT_EPOCH,BSTAR,MEAN_MOTION_DOT,MEAN_MOTION_DDOT,SEMIMAJOR_AXIS,PERIOD,APOAPSIS,PERIAPSIS,OBJECT_TYPE,RCS_SIZE,COUNTRY_CODE,LAUNCH_DATE,SITE,DECAY_DATE,FILE,GP_ID,TLE_LINE0,TLE_LINE1,TLE_LINE2
"2.0","GENERATED VIA SPACE-TRACK.ORG API","2009-04-17T07:46:42","18 SPCS","COSMOS 2251","1993-036A","EARTH","TEME","UTC","SGP4","2009-04-17T11:50:06.997055","14.32043434","0.00250470","74.0363","257.2724","20.2581","339.9571","0","U","22675","999","82700","0.00000370570000","-0.00000016","0.0000000000000","7163.050","100.555","802.856","766.973","PAYLOAD","LARGE","CIS","1993-06-16","PKMTR","","702259","70812814","0 COSMOS 2251","1 22675U 93036A   09107.49313654 -.00000016  00000-0  37057-5 0  9990","2 22675 074.0363 257.2724 0025047 020.2581 339.9571 14.32043434827004"
"2.0","GENERATED VIA SPACE-TRACK.ORG API","2009-04-17T07:47:22","18 SPCS","IRIDIUM 33","1997-051C","EARTH","TEME","UTC","SGP4","2009-04-17T11:50:35.711231","14.32473559","0.00060780","86.3818","93.7864","221.7202","138.3546","0","U","24946","999","60688","0.00001521000000","0.00000061","0.0000000000000","7161.616","100.525","787.834","779.128","PAYLOAD","LARGE","US","1997-09-14","TTMTR","","702260","70812815","0 IRIDIUM 33","1 24946U 97051C   09107.49346888  .00000061  00000-0  15210-4 0  9994","2 24946 086.3818 093.7864 0006078 221.7202 138.3546 14.32473559606886"
"2.0","GENERATED VIA SPACE-TRACK.ORG API","2009-04-18T08:21:35","18 SPCS","IRIDIUM 33","1997-051C","EARTH","TEME","UTC","SGP4","2009-04-17T11:50:35.711231","14.32473559","0.00060780","86.3818","93.7864","221.7202","138.3546","0","U","24946","999","60688","0.00001521000000","0.00000061","0.0000000000000","7161.616","100.525","787.834","779.128","PAYLOAD","LARGE","US","1997-09-14","TTMTR","","702685","70824568","0 IRIDIUM 33","1 24946U 97051C   09107.49346888  .00000061  00000-0  15210-4 0  9994","2 24946 086.3818 093.7864 0006078 221.7202 138.3546 14.32473559606886"
"2.0","GENERATED VIA SPACE-TRACK.ORG API","2009-04-19T17:24:58","18 SPCS","IRIDIUM 33","1997-051C","EARTH","TEME","UTC","SGP4","2009-04-17T11:50:35.711231","14.32473559","0.00060780","86.3818","93.7864","221.7202","138.3546","0","U","24946","999","60688","0.00001521000000","0.00000061","0.0000000000000","7161.616","100.525","787.834","779.128","PAYLOAD","LARGE","US","1997-09-14","TTMTR","","703270","70844893","0 IRIDIUM 33","1 24946U 97051C   09107.49346888  .00000061  00000-0  15210-4 0  9994","2 24946 086.3818 093.7864 0006078 221.7202 138.3546 14.32473559606886"
"2.0","GENERATED VIA SPACE-TRACK.ORG API","2009-04-20T07:33:40","18 SPCS","IRIDIUM 33","1997-051C","EARTH","TEME","UTC","SGP4","2009-04-17T11:50:35.711231","14.32473559","0.00060780","86.3818","93.7864","221.7202","138.3546","0","U","24946","999","60688","0.00001521000000","0.00000061","0.0000000000000","7161.616","100.525","787.834","779.128","PAYLOAD","LARGE","US","1997-09-14","TTMTR","","703436","70847447","0 IRIDIUM 33","1 24946U 97051C   09107.49346888  .00000061  00000-0  15210-4 0  9994","2 24946 086.3818 093.7864 0006078 221.7202 138.3546 14.32473559606886"
"2.0","GENERATED VIA SPACE-TRACK.ORG API","2009-04-20T08:12:08","18 SPCS","COSMOS 2251","1993-036A","EARTH","TEME","UTC","SGP4","2009-04-20T11:55:43.936320","14.32043513","0.00250300","74.0366","251.7941","14.0009","346.1843","0","U","22675","999","82743","0.00000309270000","-0.00000018","0.0000000000000","7163.049","100.555","802.844","766.985","PAYLOAD","LARGE","CIS","1993-06-16","PKMTR","","703449","70847525","0 COSMOS 2251","1 22675U 93036A   09110.49703630 -.00000018  00000-0  30927-5 0  9992","2 22675 074.0366 251.7941 0025030 014.0009 346.1843 14.32043513827432"
"2.0","GENERATED VIA SPACE-TRACK.ORG API","2009-04-20T08:12:21","18 SPCS","IRIDIUM 33","1997-051C","EARTH","TEME","UTC","SGP4","2009-04-20T11:55:55.119072","14.32473894","0.00062400","86.3820","92.5303","209.9114","150.1740","0","U","24946","999","60731","0.00001752700000","0.00000067","0.0000000000000","7161.615","100.525","787.948","779.011","PAYLOAD","LARGE","US","1997-09-14","TTMTR","","703450","70847526","0 IRIDIUM 33","1 24946U 97051C   09110.49716573  .00000067  00000-0  17527-4 0  9999","2 24946 086.3820 092.5303 0006240 209.9114 150.1740 14.32473894607314"
"2.0","GENERATED VIA SPACE-TRACK.ORG API","2009-04-21T09:40:28","18 SPCS","COSMOS 2251","1993-036A","EARTH","TEME","UTC","SGP4","2009-04-21T11:24:04.314816","14.32043614","0.00250590","74.0367","250.0106","11.9362","348.2380","0","U","22675","999","82757","0.00000702630000","-0.00000007","0.0000000000000","7163.049","100.555","802.864","766.964","PAYLOAD","LARGE","CIS","1993-06-16","PKMTR","","704063","70872363","0 COSMOS 2251","1 22675U 93036A   09111.47504994 -.00000007  00000-0  70263-5 0  9998","2 22675 074.0367 250.0106 0025059 011.9362 348.2380 14.32043614827573"
"2.0","GENERATED VIA SPACE-TRACK.ORG API","2009-04-21T09:40:34","18 SPCS","IRIDIUM 33","1997-051C","EARTH","TEME","UTC","SGP4","2009-04-21T13:04:45.122015","14.32474114","0.00064000","86.3818","92.0918","205.2918","154.7981","0","U","24946","999","60746","0.00002194200000","0.00000079","0.0000000000000","7161.614","100.525","788.062","778.895","PAYLOAD","LARGE","US","1997-09-14","TTMTR","","704064","70872364","0 IRIDIUM 33","1 24946U 97051C   09111.54496669  .00000079  00000-0  21942-4 0  9996","2 24946 086.3818 092.0918 0006400 205.2918 154.7981 14.32474114607466"
"2.0","GENERATED VIA SPACE-TRACK.ORG API","2009-04-22T07:48:38","18 SPCS","IRIDIUM 33","1997-051C","EARTH","TEME","UTC","SGP4","2009-04-21T13:04:45.122015","14.32474114","0.00064000","86.3818","92.0918","205.2918","154.7981","0","U","24946","999","60746","0.00002194200000","0.00000079","0.0000000000000","7161.614","100.525","788.062","778.895","PAYLOAD","LARGE","US","1997-09-14","TTMTR","","704436","70884611","0 IRIDIUM 33","1 24946U 97051C   09111.54496669  .00000079  00000-0  21942-4 0  9996","2 24946 086.3818 092.0918 0006400 205.2918 154.7981 14.32474114607466"
"2.0","GENERATED VIA SPACE-TRACK.ORG API","2009-04-22T07:51:44","18 SPCS","IRIDIUM 33","1997-051C","EARTH","TEME","UTC","SGP4","2009-04-21T13:04:45.122015","14.32474114","0.00064000","86.3818","92.0918","205.2918","154.7981","0","U","24946","999","60746","0.00002194200000","0.00000079","0.0000000000000","7161.614","100.525","788.062","778.895","PAYLOAD","LARGE","US","1997-09-14","TTMTR","","704443","70884773","0 IRIDIUM 33","1 24946U 97051C   09111.54496669  .00000079  00000-0  21942-4 0  9996","2 24946 086.3818 092.0918 0006400 205.2918 154.7981 14.32474114607466"
"2.0","GENERATED VIA SPACE-TRACK.ORG API","2009-04-22T08:02:43","18 SPCS","IRIDIUM 33","1997-051C","EARTH","TEME","UTC","SGP4","2009-04-22T10:52:24.441024","14.32474442","0.00064950","86.3817","91.7120","201.4605","158.6339","0","U","24946","999","60760","0.00002921600000","0.00000099","0.0000000000000","7161.613","100.525","788.129","778.826","PAYLOAD","LARGE","US","1997-09-14","TTMTR","","704448","70884797","0 IRIDIUM 33","1 24946U 97051C   09112.45306066  .00000099  00000-0  29216-4 0  9992","2 24946 086.3817 091.7120 0006495 201.4605 158.6339 14.32474442607601"
"2.0","GENERATED VIA SPACE-TRACK.ORG API","2009-04-23T08:12:05","18 SPCS","IRIDIUM 33","1997-051C","EARTH","TEME","UTC","SGP4","2009-04-22T10:52:24.441024","14.32474442","0.00064950","86.3817","91.7120","201.4605","158.6339","0","U","24946","999","60760","0.00002921600000","0.00000099","0.0000000000000","7161.613","100.525","788.129","778.826","PAYLOAD","LARGE","US","1997-09-14","TTMTR","","704907","70899301","0 IRIDIUM 33","1 24946U 97051C   09112.45306066  .00000099  00000-0  29216-4 0  9992","2 24946 086.3817 091.7120 0006495 201.4605 158.6339 14.32474442607601"
"2.0","GENERATED VIA SPACE-TRACK.ORG API","2009-04-23T08:13:33","18 SPCS","IRIDIUM 33","1997-051C","EARTH","TEME","UTC","SGP4","2009-04-22T10:52:24.441024","14.32474442","0.00064950","86.3817","91.7120","201.4605","158.6339","0","U","24946","999","60760","0.00002921600000","0.00000099","0.0000000000000","7161.613","100.525","788.129","778.826","PAYLOAD","LARGE","US","1997-09-14","TTMTR","","704909","70899350","0 IRIDIUM 33","1 24946U 97051C   09112.45306066  .00000099  00000-0  29216-4 0  9992","2 24946 086.3817 091.7120 0006495 201.4605 158.6339 14.32474442607601"
"2.0","GENERATED VIA SPACE-TRACK.ORG API","2009-04-22T08:02:04","18 SPCS","COSMOS 2251","1993-036A","EARTH","TEME","UTC","SGP4","2009-04-22T10:52:24.703680","14.32043869","0.00250720","74.0369","248.2270","9.9072","350.2587","0","U","22675","999","82771","0.00001359200000","0.00000011","0.0000000000000","7163.048","100.555","802.872","766.954","PAYLOAD","LARGE","CIS","1993-06-16","PKMTR","","704447","70884796","0 COSMOS 2251","1 22675U 93036A   09112.45306370  .00000011  00000-0  13592-4 0  9990","2 22675 074.0369 248.2270 0025072 009.9072 350.2587 14.32043869827716"
"2.0","GENERATED VIA SPACE-TRACK.ORG API","2009-04-23T09:04:23","18 SPCS","IRIDIUM 33","1997-051C","EARTH","TEME","UTC","SGP4","2009-04-23T10:20:39.070463","14.32474560","0.00065620","86.3817","91.3028","197.8608","162.2358","0","U","24946","999","60774","0.00002753200000","0.00000094","0.0000000000000","7161.612","100.525","788.177","778.778","PAYLOAD","LARGE","US","1997-09-14","TTMTR","","704976","70900825","0 IRIDIUM 33","1 24946U 97051C   09113.43100776  .00000094  00000-0  27532-4 0  9995","2 24946 086.3817 091.3028 0006562 197.8608 162.2358 14.32474560607748"
